[
    {
        "Altitude(m)": 605459.0309788899,
        "Argument of Periapsis(deg)": 0.0,
        "Eccentricity": 0.0,
        "Inclination(deg)": 60.0,
        "Latitude(deg)": 27.98822108325412,
        "Longitude(deg)": -167.20136217621354,
        "Mean Anomaly(deg)": 32.72730000000001,
        "RAAN(deg)": 275.0,
        "Satellite Name": "Test1 1212",
        "Satellite Number": 1212,
        "Semi-Major Axis(m)": 6980739.136638005,
        "Time(s)": 0
    },
    {
        "Altitude(m)": 605535.82182843,
        "Argument of Periapsis(deg)": 0.00010418945913296404,
        "Eccentricity": 0.0,
        "Inclination(deg)": 60.0,
        "Latitude(deg)": 28.50134996373371,
        "Longitude(deg)": -166.84441592404954,
        "Mean Anomaly(deg)": 33.34740614546182,
        "RAAN(deg)": 274.9995799508602,
        "Satellite Name": "Test1 1212",
        "Satellite Number": 1212,
        "Semi-Major Axis(m)": 6980739.136638005,
        "Time(s)": 10
    }
]